[
  {
    "altim": 1011,
    "clouds": [],
    "cover": "CAVOK",
    "dewp": 8,
    "elev": 952,
    "fltCat": "VFR",
    "icaoId": "LTAC",
    "lat": 40.128,
    "lon": 32.995,
    "metarType": "METAR",
    "name": "Ankara/Esenboğa Intl, AN, TR",
    "obsTime": 1783565400,
    "qcField": 0,
    "rawOb": "METAR LTAC 090250Z VRB02KT CAVOK 14/08 Q1011 RMK RWY21C 16003KT RWY03L 00000KT RWY21R VRB02KT RWY03R 00000KT RWY21L 12003KT",
    "receiptTime": "2026-07-09T03:06:12.828Z",
    "reportTime": "2026-07-09T03:00:00.000Z",
    "temp": 14,
    "visib": "6+",
    "wdir": "VRB",
    "wspd": 2
  }
]