[
  {
    "altim": 1011,
    "clouds": [],
    "cover": "CAVOK",
    "dewp": 9,
    "elev": 952,
    "fltCat": "VFR",
    "icaoId": "LTAC",
    "lat": 40.128,
    "lon": 32.995,
    "metarType": "METAR",
    "name": "Ankara/Esenboğa Intl, AN, TR",
    "obsTime": 1783572600,
    "qcField": 16,
    "rawOb": "METAR LTAC 090450Z VRB02KT CAVOK 18/09 Q1011 NOSIG RMK RWY21C VRB01KT RWY03L VRB02KT RWY21R 00000KT RWY03R 00000KT RWY21L 00000KT",
    "receiptTime": "2026-07-09T05:06:10.322Z",
    "reportTime": "2026-07-09T05:00:00.000Z",
    "temp": 18,
    "visib": "6+",
    "wdir": "VRB",
    "wspd": 2
  }
]