[
  {
    "altim": 1015,
    "clouds": [],
    "cover": "CAVOK",
    "dewp": 10,
    "elev": 952,
    "fltCat": "VFR",
    "icaoId": "LTAC",
    "lat": 40.128,
    "lon": 32.995,
    "metarType": "METAR",
    "name": "Ankara/Esenboğa Intl, AN, TR",
    "obsTime": 1783479000,
    "qcField": 16,
    "rawOb": "METAR LTAC 080250Z 06005KT CAVOK 14/10 Q1015 NOSIG RMK RWY21C 07004KT RWY03L 05004KT RWY21R VRB02KT RWY03R VRB01KT RWY21L VRB01KT",
    "receiptTime": "2026-07-08T03:06:10.317Z",
    "reportTime": "2026-07-08T03:00:00.000Z",
    "temp": 14,
    "visib": "6+",
    "wdir": 60,
    "wspd": 5
  }
]