[
  {
    "altim": 1015,
    "clouds": [],
    "cover": "CAVOK",
    "dewp": 10,
    "elev": 952,
    "fltCat": "VFR",
    "icaoId": "LTAC",
    "lat": 40.128,
    "lon": 32.995,
    "metarType": "METAR",
    "name": "Ankara/Esenboğa Intl, AN, TR",
    "obsTime": 1783482600,
    "qcField": 16,
    "rawOb": "METAR LTAC 080350Z 05004KT CAVOK 15/10 Q1015 NOSIG RMK RWY21C 04004KT 360V060 RWY03L 05004KT 020V080 RWY21R 03005KT 360V060 RWY03R 00000KT RWY21L VRB02KT",
    "receiptTime": "2026-07-08T04:06:14.621Z",
    "reportTime": "2026-07-08T04:00:00.000Z",
    "temp": 15,
    "visib": "6+",
    "wdir": 50,
    "wspd": 4
  }
]