[
  {
    "altim": 1009,
    "clouds": [
      {
        "base": 4000,
        "cover": "FEW"
      }
    ],
    "cover": "FEW",
    "dewp": 6,
    "elev": 952,
    "fltCat": "VFR",
    "icaoId": "LTAC",
    "lat": 40.128,
    "lon": 32.995,
    "metarType": "METAR",
    "name": "Ankara/Esenboğa Intl, AN, TR",
    "obsTime": 1783596000,
    "qcField": 16,
    "rawOb": "METAR LTAC 091120Z 24010KT 190V270 9999 FEW040 30/06 Q1009 NOSIG RMK RWY21C 25014G24KT 210V280 RWY03L 26009KT 190V310 RWY21R 23013KT 190V280 RWY03R 22009KT 140V270 RWY21L 26009KT 220V280",
    "receiptTime": "2026-07-09T11:30:07.974Z",
    "reportTime": "2026-07-09T11:20:00.000Z",
    "temp": 30,
    "visib": "6+",
    "wdir": 240,
    "wspd": 10
  }
]