[
  {
    "altim": 1011,
    "clouds": [],
    "cover": "CAVOK",
    "dewp": 9,
    "elev": 952,
    "fltCat": "VFR",
    "icaoId": "LTAC",
    "lat": 40.128,
    "lon": 32.995,
    "metarType": "METAR",
    "name": "Ankara/Esenboğa Intl, AN, TR",
    "obsTime": 1783538400,
    "qcField": 16,
    "rawOb": "METAR LTAC 081920Z 06004KT CAVOK 21/09 Q1011 NOSIG RMK RWY21C 04005KT RWY03L 06005KT RWY21R 02006KT RWY03R 05003KT RWY21L 06005KT 010V110",
    "receiptTime": "2026-07-08T19:28:05.700Z",
    "reportTime": "2026-07-08T19:20:00.000Z",
    "temp": 21,
    "visib": "6+",
    "wdir": 60,
    "wspd": 4
  }
]