[
  {
    "altim": 1015,
    "clouds": [],
    "cover": "CAVOK",
    "dewp": 10,
    "elev": 952,
    "fltCat": "VFR",
    "icaoId": "LTAC",
    "lat": 40.128,
    "lon": 32.995,
    "metarType": "METAR",
    "name": "Ankara/Esenboğa Intl, AN, TR",
    "obsTime": 1783473600,
    "qcField": 16,
    "rawOb": "METAR LTAC 080120Z 04007KT CAVOK 15/10 Q1015 NOSIG RMK RWY21C 04009KT RWY03L 02008KT RWY21R 02009KT RWY03R 07004KT RWY21L 03008KT",
    "receiptTime": "2026-07-08T01:30:15.767Z",
    "reportTime": "2026-07-08T01:20:00.000Z",
    "temp": 15,
    "visib": "6+",
    "wdir": 40,
    "wspd": 7
  }
]