[
  {
    "altim": 1011,
    "clouds": [
      {
        "base": 4000,
        "cover": "SCT"
      }
    ],
    "cover": "SCT",
    "dewp": 6,
    "elev": 952,
    "fltCat": "VFR",
    "icaoId": "LTAC",
    "lat": 40.128,
    "lon": 32.995,
    "metarType": "METAR",
    "name": "Ankara/Esenboğa Intl, AN, TR",
    "obsTime": 1783513200,
    "qcField": 16,
    "rawOb": "METAR LTAC 081220Z VRB07KT 9999 SCT040 29/06 Q1011 NOSIG RMK RWY21C VRB05KT RWY03L VRB07KT RWY21R VRB04KT RWY03R VRB06KT RWY21L 31006KT 260V350",
    "receiptTime": "2026-07-08T12:28:05.383Z",
    "reportTime": "2026-07-08T12:20:00.000Z",
    "temp": 29,
    "visib": "6+",
    "wdir": "VRB",
    "wspd": 7
  }
]