[
  {
    "altim": 1011,
    "clouds": [],
    "cover": "CAVOK",
    "dewp": 9,
    "elev": 952,
    "fltCat": "VFR",
    "icaoId": "LTAC",
    "lat": 40.128,
    "lon": 32.995,
    "metarType": "METAR",
    "name": "Ankara/Esenboğa Intl, AN, TR",
    "obsTime": 1783561800,
    "qcField": 16,
    "rawOb": "METAR LTAC 090150Z VRB01KT CAVOK 13/09 Q1011 NOSIG RMK RWY21C VRB01KT RWY03L 00000KT RWY21R 00000KT RWY03R 13004KT RWY21L 09002KT",
    "receiptTime": "2026-07-09T02:06:14.838Z",
    "reportTime": "2026-07-09T02:00:00.000Z",
    "temp": 13,
    "visib": "6+",
    "wdir": "VRB",
    "wspd": 1
  }
]