[
  {
    "altim": 1015,
    "clouds": [],
    "cover": "CAVOK",
    "dewp": 10,
    "elev": 952,
    "fltCat": "VFR",
    "icaoId": "LTAC",
    "lat": 40.128,
    "lon": 32.995,
    "metarType": "METAR",
    "name": "Ankara/Esenboğa Intl, AN, TR",
    "obsTime": 1783468200,
    "qcField": 16,
    "rawOb": "METAR LTAC 072350Z 05011KT CAVOK 16/10 Q1015 NOSIG RMK RWY21C 05007KT RWY03L 03010KT RWY21R 02010KT RWY03R 03009KT 360V110 RWY21L 03008KT",
    "receiptTime": "2026-07-08T00:06:13.115Z",
    "reportTime": "2026-07-08T00:00:00.000Z",
    "temp": 16,
    "visib": "6+",
    "wdir": 50,
    "wspd": 11
  }
]