[
  {
    "altim": 1011,
    "clouds": [],
    "cover": "CAVOK",
    "dewp": 4,
    "elev": 952,
    "fltCat": "VFR",
    "icaoId": "LTAC",
    "lat": 40.128,
    "lon": 32.995,
    "metarType": "METAR",
    "name": "Ankara/Esenboğa Intl, AN, TR",
    "obsTime": 1783536600,
    "qcField": 16,
    "rawOb": "METAR LTAC 081850Z 06004KT CAVOK 22/04 Q1011 NOSIG RMK RWY21C 09005KT 050V140 RWY03L 07003KT RWY21R 07004KT RWY03R 05005KT 350V070 RWY21L 07004KT 040V100",
    "receiptTime": "2026-07-08T19:06:09.769Z",
    "reportTime": "2026-07-08T19:00:00.000Z",
    "temp": 22,
    "visib": "6+",
    "wdir": 60,
    "wspd": 4
  }
]