[
  {
    "altim": 1011,
    "clouds": [],
    "cover": "CAVOK",
    "dewp": 9,
    "elev": 952,
    "fltCat": "VFR",
    "icaoId": "LTAC",
    "lat": 40.128,
    "lon": 32.995,
    "metarType": "METAR",
    "name": "Ankara/Esenboğa Intl, AN, TR",
    "obsTime": 1783578000,
    "qcField": 16,
    "rawOb": "METAR LTAC 090620Z VRB03KT CAVOK 22/09 Q1011 NOSIG RMK RWY21C VRB02KT RWY03L VRB02KT RWY21R VRB02KT RWY03R VRB01KT RWY21L 00000KT",
    "receiptTime": "2026-07-09T06:30:25.457Z",
    "reportTime": "2026-07-09T06:20:00.000Z",
    "temp": 22,
    "visib": "6+",
    "wdir": "VRB",
    "wspd": 3
  }
]