[
  {
    "altim": 1015,
    "clouds": [],
    "cover": "CAVOK",
    "dewp": 10,
    "elev": 952,
    "fltCat": "VFR",
    "icaoId": "LTAC",
    "lat": 40.128,
    "lon": 32.995,
    "metarType": "METAR",
    "name": "Ankara/Esenboğa Intl, AN, TR",
    "obsTime": 1783470000,
    "qcField": 16,
    "rawOb": "METAR LTAC 080020Z 04010KT CAVOK 15/10 Q1015 NOSIG RMK RWY21C 04007KT RWY03L 03009KT RWY21R 02008KT RWY03R 04006KT RWY21L 03008KT",
    "receiptTime": "2026-07-08T00:30:52.530Z",
    "reportTime": "2026-07-08T00:20:00.000Z",
    "temp": 15,
    "visib": "6+",
    "wdir": 40,
    "wspd": 10
  }
]