[
  {
    "altim": 1011,
    "clouds": [],
    "cover": "CAVOK",
    "dewp": 7,
    "elev": 952,
    "fltCat": "VFR",
    "icaoId": "LTAC",
    "lat": 40.128,
    "lon": 32.995,
    "maxT": 0.3,
    "metarType": "METAR",
    "name": "Ankara/Esenboğa Intl, AN, TR",
    "obsTime": 1783554600,
    "qcField": 16,
    "rawOb": "METAR LTAC 082350Z 09004KT CAVOK 16/07 Q1011 NOSIG RMK RWY21C 00000KT RWY03L 10003KT RWY21R 00000KT RWY03R 07003KT RWY21L 10005KT",
    "receiptTime": "2026-07-09T00:06:09.570Z",
    "reportTime": "2026-07-09T00:00:00.000Z",
    "temp": 16,
    "visib": "6+",
    "wdir": 90,
    "wspd": 4
  }
]