[
  {
    "altim": 1015,
    "clouds": [],
    "cover": "CAVOK",
    "dewp": 10,
    "elev": 952,
    "fltCat": "VFR",
    "icaoId": "LTAC",
    "lat": 40.128,
    "lon": 32.995,
    "metarType": "METAR",
    "name": "Ankara/Esenboğa Intl, AN, TR",
    "obsTime": 1783464600,
    "qcField": 16,
    "rawOb": "METAR LTAC 072250Z 05012KT CAVOK 16/10 Q1015 NOSIG RMK RWY21C 05005KT RWY03L 04009KT RWY21R 02008KT RWY03R VRB05KT RWY21L 03008KT",
    "receiptTime": "2026-07-07T23:06:10.815Z",
    "reportTime": "2026-07-07T23:00:00.000Z",
    "temp": 16,
    "visib": "6+",
    "wdir": 50,
    "wspd": 12
  }
]