[
  {
    "altim": 1015,
    "clouds": [],
    "cover": "CAVOK",
    "dewp": 10,
    "elev": 952,
    "fltCat": "VFR",
    "icaoId": "LTAC",
    "lat": 40.128,
    "lon": 32.995,
    "metarType": "METAR",
    "name": "Ankara/Esenboğa Intl, AN, TR",
    "obsTime": 1783484400,
    "qcField": 16,
    "rawOb": "METAR LTAC 080420Z 05008KT CAVOK 17/10 Q1015 NOSIG RMK RWY21C 04008KT RWY03L 04007KT RWY21R 03009KT RWY03R VRB02KT RWY21L VRB02KT",
    "receiptTime": "2026-07-08T04:28:07.163Z",
    "reportTime": "2026-07-08T04:20:00.000Z",
    "temp": 17,
    "visib": "6+",
    "wdir": 50,
    "wspd": 8
  }
]