[
  {
    "altim": 1015,
    "clouds": [],
    "cover": "CAVOK",
    "dewp": 10,
    "elev": 952,
    "fltCat": "VFR",
    "icaoId": "LTAC",
    "lat": 40.128,
    "lon": 32.995,
    "metarType": "METAR",
    "name": "Ankara/Esenboğa Intl, AN, TR",
    "obsTime": 1783466400,
    "qcField": 16,
    "rawOb": "METAR LTAC 072320Z 04009KT CAVOK 16/10 Q1015 NOSIG RMK RWY21C 05006KT RWY03L 03011KT RWY21R 02007KT RWY03R 01007KT RWY21L 03010KT",
    "receiptTime": "2026-07-07T23:30:14.567Z",
    "reportTime": "2026-07-07T23:20:00.000Z",
    "temp": 16,
    "visib": "6+",
    "wdir": 40,
    "wspd": 9
  }
]